{"type": "FeatureCollection", "features": [{"type": "Feature", "geometry": {"type": "Polygon", "coordinates": [[[-93.9446051, 29.8541233], [-93.9430599, 29.8557112], [-93.9415046, 29.8573103], [-93.9399745, 29.8589061], [-93.9382289, 29.8607137], [-93.9367246, 29.8622749], [-93.935227, 29.8638477], [-93.934518, 29.8633436], [-93.9360156, 29.8617709], [-93.9375199, 29.8602097], [-93.9392655, 29.8584021], [-93.9407956, 29.8568063], [-93.9423509, 29.8552072], [-93.9438961, 29.8536193], [-93.9446051, 29.8541233]]]}, "properties": {"name": "POPA Public Wharf apron (berthing zone)", "water_ft": 250.0, "inland_ft": 40.0}}]}