{"type": "FeatureCollection", "features": [{"type": "Feature", "geometry": {"type": "Polygon", "coordinates": [[[-93.94295197773816, 29.85565296685199], [-93.94360853573016, 29.85612326362167], [-93.94206734508548, 29.85771495330613], [-93.9414068234465, 29.857240828008376], [-93.94295197773816, 29.85565296685199]]]}, "properties": {"name": "Berth 5", "berth_leng": 351.0, "width": 757.0}}, {"type": "Feature", "geometry": {"type": "Polygon", "coordinates": [[[-93.94140679399085, 29.857240795290384], [-93.94206734508548, 29.85771495330613], [-93.94198645411878, 29.85779765558818], [-93.94194296094634, 29.85784261050602], [-93.94188138847538, 29.857909242025933], [-93.94184998390136, 29.857945569149738], [-93.941796218124, 29.85800518041911], [-93.94177204799274, 29.858029467346373], [-93.94174036348377, 29.858062521166456], [-93.94171313733098, 29.858090120776957], [-93.9416728448349, 29.858133225899174], [-93.94164923521056, 29.85815874223109], [-93.94157942285008, 29.858227795405238], [-93.94154657920312, 29.85826282557674], [-93.94053721076256, 29.859315672138454], [-93.93987672587576, 29.85883660407708], [-93.94140679399085, 29.857240795290384]]]}, "properties": {"name": "Berth 4", "berth_leng": 1108.0, "width": 757.0}}, {"type": "Feature", "geometry": {"type": "Polygon", "coordinates": [[[-93.93987643532954, 29.858836529899108], [-93.94053725206783, 29.859315612289556], [-93.93931379479599, 29.860589204855863], [-93.93901318670443, 29.860898373478868], [-93.93886906564421, 29.86104727413893], [-93.93879973376887, 29.86112230060418], [-93.93813108984875, 29.860644199627135], [-93.93987643532954, 29.858836529899108]]]}, "properties": {"name": "Berth 3", "berth_leng": 1966.0, "width": 858.0}}, {"type": "Feature", "geometry": {"type": "Polygon", "coordinates": [[[-93.93813044404841, 29.86064381041606], [-93.9385945759872, 29.860975114191326], [-93.93854943658368, 29.861021573628726], [-93.93708913746674, 29.86253459632483], [-93.93662690540488, 29.86220552032616], [-93.93813044404841, 29.86064381041606]]]}, "properties": {"name": "Berth 2", "berth_leng": 2708.0, "width": 742.0}}, {"type": "Feature", "geometry": {"type": "Polygon", "coordinates": [[[-93.9366268111472, 29.862205415625297], [-93.93708927567297, 29.86253456722715], [-93.93674683704721, 29.862887076616982], [-93.93665150432352, 29.862988033871815], [-93.93644722780728, 29.863203198512444], [-93.93621332111385, 29.863444432980362], [-93.93592865251105, 29.863744054850823], [-93.93587465320627, 29.863798205158137], [-93.93576386052679, 29.863908623500173], [-93.93614019468784, 29.864186041333692], [-93.93596068123601, 29.86437619307281], [-93.93512921305445, 29.863778148978486], [-93.9366268111472, 29.862205415625297]]]}, "properties": {"name": "Berth 1", "berth_leng": 3450.0, "width": 742.0}}, {"type": "Feature", "geometry": {"type": "Polygon", "coordinates": [[[-93.94450729032128, 29.854053791898274], [-93.94516384753092, 29.854524096729925], [-93.94362265737715, 29.856115811387795], [-93.9429621354456, 29.855641678933992], [-93.94450729032128, 29.854053791898274]]]}, "properties": {"name": "Berth 6", "berth_leng": 351.0, "width": 757.0}}]}