{"type": "FeatureCollection", "features": [{"type": "Feature", "geometry": {"type": "LineString", "coordinates": [[-93.9445073, 29.8540538], [-93.9429621, 29.8556417], [-93.9414068, 29.8572408], [-93.9398767, 29.8588366], [-93.9381311, 29.8606442], [-93.9366268, 29.8622054], [-93.9351292, 29.8637781]]}, "properties": {"name": "POPA Public Wharf centerline", "stations": [-1168.55, -411.38, 351.0, 1107.29, 1966.5, 2707.89, 3451.13]}}, {"type": "Feature", "geometry": {"type": "Point", "coordinates": [-93.9445073, 29.8540538]}, "properties": {"station": -1168.55}}, {"type": "Feature", "geometry": {"type": "Point", "coordinates": [-93.9429621, 29.8556417]}, "properties": {"station": -411.38}}, {"type": "Feature", "geometry": {"type": "Point", "coordinates": [-93.9414068, 29.8572408]}, "properties": {"station": 351.0}}, {"type": "Feature", "geometry": {"type": "Point", "coordinates": [-93.9398767, 29.8588366]}, "properties": {"station": 1107.29}}, {"type": "Feature", "geometry": {"type": "Point", "coordinates": [-93.9381311, 29.8606442]}, "properties": {"station": 1966.5}}, {"type": "Feature", "geometry": {"type": "Point", "coordinates": [-93.9366268, 29.8622054]}, "properties": {"station": 2707.89}}, {"type": "Feature", "geometry": {"type": "Point", "coordinates": [-93.9351292, 29.8637781]}, "properties": {"station": 3451.13}}]}