{"type": "FeatureCollection", "features": [{"type": "Feature", "geometry": {"type": "Point", "coordinates": [-93.9443674, 29.8541976]}, "properties": {"station": -1100, "major": false}}, {"type": "Feature", "geometry": {"type": "Point", "coordinates": [-93.9441633, 29.8544073]}, "properties": {"station": -1000, "major": true}}, {"type": "Feature", "geometry": {"type": "Point", "coordinates": [-93.9439593, 29.854617]}, "properties": {"station": -900, "major": false}}, {"type": "Feature", "geometry": {"type": "Point", "coordinates": [-93.9437552, 29.8548267]}, "properties": {"station": -800, "major": false}}, {"type": "Feature", "geometry": {"type": "Point", "coordinates": [-93.9435511, 29.8550364]}, "properties": {"station": -700, "major": false}}, {"type": "Feature", "geometry": {"type": "Point", "coordinates": [-93.9433471, 29.8552461]}, "properties": {"station": -600, "major": false}}, {"type": "Feature", "geometry": {"type": "Point", "coordinates": [-93.943143, 29.8554558]}, "properties": {"station": -500, "major": true}}, {"type": "Feature", "geometry": {"type": "Point", "coordinates": [-93.9429389, 29.8556655]}, "properties": {"station": -400, "major": false}}, {"type": "Feature", "geometry": {"type": "Point", "coordinates": [-93.9427349, 29.8558753]}, "properties": {"station": -300, "major": false}}, {"type": "Feature", "geometry": {"type": "Point", "coordinates": [-93.9425309, 29.8560851]}, "properties": {"station": -200, "major": false}}, {"type": "Feature", "geometry": {"type": "Point", "coordinates": [-93.9423269, 29.8562948]}, "properties": {"station": -100, "major": false}}, {"type": "Feature", "geometry": {"type": "Point", "coordinates": [-93.9421229, 29.8565046]}, "properties": {"station": 0, "major": true}}, {"type": "Feature", "geometry": {"type": "Point", "coordinates": [-93.9419189, 29.8567143]}, "properties": {"station": 100, "major": false}}, {"type": "Feature", "geometry": {"type": "Point", "coordinates": [-93.9417149, 29.8569241]}, "properties": {"station": 200, "major": false}}, {"type": "Feature", "geometry": {"type": "Point", "coordinates": [-93.9415108, 29.8571338]}, "properties": {"station": 300, "major": false}}, {"type": "Feature", "geometry": {"type": "Point", "coordinates": [-93.9413077, 29.8573442]}, "properties": {"station": 400, "major": false}}, {"type": "Feature", "geometry": {"type": "Point", "coordinates": [-93.9411054, 29.8575552]}, "properties": {"station": 500, "major": true}}, {"type": "Feature", "geometry": {"type": "Point", "coordinates": [-93.940903, 29.8577662]}, "properties": {"station": 600, "major": false}}, {"type": "Feature", "geometry": {"type": "Point", "coordinates": [-93.9407007, 29.8579772]}, "properties": {"station": 700, "major": false}}, {"type": "Feature", "geometry": {"type": "Point", "coordinates": [-93.9404984, 29.8581882]}, "properties": {"station": 800, "major": false}}, {"type": "Feature", "geometry": {"type": "Point", "coordinates": [-93.9402961, 29.8583992]}, "properties": {"station": 900, "major": false}}, {"type": "Feature", "geometry": {"type": "Point", "coordinates": [-93.9400938, 29.8586102]}, "properties": {"station": 1000, "major": true}}, {"type": "Feature", "geometry": {"type": "Point", "coordinates": [-93.9398915, 29.8588212]}, "properties": {"station": 1100, "major": false}}, {"type": "Feature", "geometry": {"type": "Point", "coordinates": [-93.9396884, 29.8590316]}, "properties": {"station": 1200, "major": false}}, {"type": "Feature", "geometry": {"type": "Point", "coordinates": [-93.9394852, 29.859242]}, "properties": {"station": 1300, "major": false}}, {"type": "Feature", "geometry": {"type": "Point", "coordinates": [-93.939282, 29.8594524]}, "properties": {"station": 1400, "major": false}}, {"type": "Feature", "geometry": {"type": "Point", "coordinates": [-93.9390789, 29.8596628]}, "properties": {"station": 1500, "major": true}}, {"type": "Feature", "geometry": {"type": "Point", "coordinates": [-93.9388757, 29.8598732]}, "properties": {"station": 1600, "major": false}}, {"type": "Feature", "geometry": {"type": "Point", "coordinates": [-93.9386725, 29.8600835]}, "properties": {"station": 1700, "major": false}}, {"type": "Feature", "geometry": {"type": "Point", "coordinates": [-93.9384694, 29.8602939]}, "properties": {"station": 1800, "major": false}}, {"type": "Feature", "geometry": {"type": "Point", "coordinates": [-93.9382662, 29.8605043]}, "properties": {"station": 1900, "major": false}}, {"type": "Feature", "geometry": {"type": "Point", "coordinates": [-93.9380631, 29.8607148]}, "properties": {"station": 2000, "major": true}}, {"type": "Feature", "geometry": {"type": "Point", "coordinates": [-93.9378602, 29.8609253]}, "properties": {"station": 2100, "major": false}}, {"type": "Feature", "geometry": {"type": "Point", "coordinates": [-93.9376573, 29.8611359]}, "properties": {"station": 2200, "major": false}}, {"type": "Feature", "geometry": {"type": "Point", "coordinates": [-93.9374544, 29.8613465]}, "properties": {"station": 2300, "major": false}}, {"type": "Feature", "geometry": {"type": "Point", "coordinates": [-93.9372515, 29.8615571]}, "properties": {"station": 2400, "major": false}}, {"type": "Feature", "geometry": {"type": "Point", "coordinates": [-93.9370486, 29.8617677]}, "properties": {"station": 2500, "major": true}}, {"type": "Feature", "geometry": {"type": "Point", "coordinates": [-93.9368457, 29.8619782]}, "properties": {"station": 2600, "major": false}}, {"type": "Feature", "geometry": {"type": "Point", "coordinates": [-93.9366428, 29.8621888]}, "properties": {"station": 2700, "major": false}}, {"type": "Feature", "geometry": {"type": "Point", "coordinates": [-93.9364412, 29.8624003]}, "properties": {"station": 2800, "major": false}}, {"type": "Feature", "geometry": {"type": "Point", "coordinates": [-93.9362397, 29.8626119]}, "properties": {"station": 2900, "major": false}}, {"type": "Feature", "geometry": {"type": "Point", "coordinates": [-93.9360382, 29.8628235]}, "properties": {"station": 3000, "major": true}}, {"type": "Feature", "geometry": {"type": "Point", "coordinates": [-93.9358367, 29.8630351]}, "properties": {"station": 3100, "major": false}}, {"type": "Feature", "geometry": {"type": "Point", "coordinates": [-93.9356352, 29.8632468]}, "properties": {"station": 3200, "major": false}}, {"type": "Feature", "geometry": {"type": "Point", "coordinates": [-93.9354337, 29.8634584]}, "properties": {"station": 3300, "major": false}}, {"type": "Feature", "geometry": {"type": "Point", "coordinates": [-93.9352322, 29.86367]}, "properties": {"station": 3400, "major": false}}]}