{"type": "FeatureCollection", "features": [{"type": "Feature", "geometry": {"type": "Polygon", "coordinates": [[[-93.93626548399425, 29.863828818391905], [-93.93723003565752, 29.86282672480338], [-93.93772843355356, 29.863191925758137], [-93.93676609444083, 29.864195846391], [-93.93626548399425, 29.863828818391905]]]}, "properties": {"name": "Warehouse 1", "label": "W1"}}, {"type": "Feature", "geometry": {"type": "Polygon", "coordinates": [[[-93.93723947515453, 29.862830711914533], [-93.93845135547342, 29.86156145713796], [-93.9389542692004, 29.861923663403736], [-93.93773787305058, 29.863195912854643], [-93.93723947515453, 29.862830711914533]]]}, "properties": {"name": "Warehouse 2", "label": "W2"}}, {"type": "Feature", "geometry": {"type": "Polygon", "coordinates": [[[-93.93995076136191, 29.860315156703777], [-93.94051407511365, 29.860727685782543], [-93.93949815778241, 29.861781649031954], [-93.93893602262035, 29.861369977367833], [-93.93995076136191, 29.860315156703777]]]}, "properties": {"name": "Warehouse 3", "label": "W3"}}, {"type": "Feature", "geometry": {"type": "Polygon", "coordinates": [[[-93.93475690001848, 29.86759681382998], [-93.93538882170174, 29.86692215104786], [-93.93583851114644, 29.867226155724758], [-93.93520319562805, 29.867912251352646], [-93.93475690001848, 29.86759681382998]]]}, "properties": {"name": "Gulf Maritime", "label": "GM"}}, {"type": "Feature", "geometry": {"type": "Polygon", "coordinates": [[[-93.94155920655622, 29.859663051502075], [-93.9405211780926, 29.860734863979896], [-93.93995249151715, 29.860320137212355], [-93.94098162845609, 29.859245116765628], [-93.94155920655622, 29.859663051502075]]]}, "properties": {"name": "Warehouse 4", "label": "W4"}}, {"type": "Feature", "geometry": {"type": "Polygon", "coordinates": [[[-93.94264869231596, 29.858523909607857], [-93.94158929113509, 29.85962510573845], [-93.94105107810903, 29.859240346551033], [-93.94211906987894, 29.85813862419592], [-93.94264869231596, 29.858523909607857]]]}, "properties": {"name": "Warehouse 5", "label": "W5"}}, {"type": "Feature", "geometry": {"type": "Polygon", "coordinates": [[[-93.9365585952883, 29.86667492338037], [-93.93643365580195, 29.866802857268098], [-93.93618451793938, 29.86662937873026], [-93.93631191162308, 29.86649899619704], [-93.9365585952883, 29.86667492338037]]]}, "properties": {"name": "Maintenance", "label": "MAINT"}}]}