{"type": "FeatureCollection", "features": [{"type": "Feature", "geometry": {"type": "LineString", "coordinates": [[-93.9362807, 29.8641227], [-93.9361707, 29.8640445]]}, "properties": {"dockno": 50.0, "major": false, "label": null}}, {"type": "Feature", "geometry": {"type": "LineString", "coordinates": [[-93.9368943, 29.8643807], [-93.9362708, 29.8639375]]}, "properties": {"dockno": 100.0, "major": true, "label": "100"}}, {"type": "Feature", "geometry": {"type": "LineString", "coordinates": [[-93.936481, 29.8639087], [-93.936371, 29.8638305]]}, "properties": {"dockno": 150.0, "major": false, "label": null}}, {"type": "Feature", "geometry": {"type": "LineString", "coordinates": [[-93.9370945, 29.8641667], [-93.9364711, 29.8637235]]}, "properties": {"dockno": 200.0, "major": true, "label": "200"}}, {"type": "Feature", "geometry": {"type": "LineString", "coordinates": [[-93.9366812, 29.8636947], [-93.9365712, 29.8636165]]}, "properties": {"dockno": 250.0, "major": false, "label": null}}, {"type": "Feature", "geometry": {"type": "LineString", "coordinates": [[-93.9372948, 29.8639528], [-93.9366713, 29.8635095]]}, "properties": {"dockno": 300.0, "major": true, "label": "300"}}, {"type": "Feature", "geometry": {"type": "LineString", "coordinates": [[-93.9368814, 29.8634808], [-93.9367714, 29.8634026]]}, "properties": {"dockno": 350.0, "major": false, "label": null}}, {"type": "Feature", "geometry": {"type": "LineString", "coordinates": [[-93.937495, 29.8637388], [-93.9368715, 29.8632956]]}, "properties": {"dockno": 400.0, "major": true, "label": "400"}}, {"type": "Feature", "geometry": {"type": "LineString", "coordinates": [[-93.9370817, 29.8632668], [-93.9369717, 29.8631886]]}, "properties": {"dockno": 450.0, "major": false, "label": null}}, {"type": "Feature", "geometry": {"type": "LineString", "coordinates": [[-93.9376952, 29.8635248], [-93.9370718, 29.8630816]]}, "properties": {"dockno": 500.0, "major": true, "label": "500"}}, {"type": "Feature", "geometry": {"type": "LineString", "coordinates": [[-93.9372819, 29.8630528], [-93.9371719, 29.8629746]]}, "properties": {"dockno": 550.0, "major": false, "label": null}}, {"type": "Feature", "geometry": {"type": "LineString", "coordinates": [[-93.9378955, 29.8633109], [-93.937272, 29.8628676]]}, "properties": {"dockno": 600.0, "major": true, "label": "600"}}, {"type": "Feature", "geometry": {"type": "LineString", "coordinates": [[-93.9374822, 29.8628389], [-93.9373721, 29.8627606]]}, "properties": {"dockno": 650.0, "major": false, "label": null}}, {"type": "Feature", "geometry": {"type": "LineString", "coordinates": [[-93.9380953, 29.8630973], [-93.9374719, 29.862654]]}, "properties": {"dockno": 700.0, "major": true, "label": "700"}}, {"type": "Feature", "geometry": {"type": "LineString", "coordinates": [[-93.9376816, 29.8626257], [-93.9375716, 29.8625475]]}, "properties": {"dockno": 750.0, "major": false, "label": null}}, {"type": "Feature", "geometry": {"type": "LineString", "coordinates": [[-93.9382947, 29.8628842], [-93.9376713, 29.862441]]}, "properties": {"dockno": 800.0, "major": true, "label": "800"}}, {"type": "Feature", "geometry": {"type": "LineString", "coordinates": [[-93.937881, 29.8624126], [-93.937771, 29.8623344]]}, "properties": {"dockno": 850.0, "major": false, "label": null}}, {"type": "Feature", "geometry": {"type": "LineString", "coordinates": [[-93.9384941, 29.8626711], [-93.9378707, 29.8622279]]}, "properties": {"dockno": 900.0, "major": true, "label": "900"}}, {"type": "Feature", "geometry": {"type": "LineString", "coordinates": [[-93.9380804, 29.8621996], [-93.9379704, 29.8621214]]}, "properties": {"dockno": 950.0, "major": false, "label": null}}, {"type": "Feature", "geometry": {"type": "LineString", "coordinates": [[-93.9386935, 29.862458], [-93.9380701, 29.8620148]]}, "properties": {"dockno": 1000.0, "major": true, "label": "1000"}}, {"type": "Feature", "geometry": {"type": "LineString", "coordinates": [[-93.9382798, 29.8619865], [-93.9381698, 29.8619083]]}, "properties": {"dockno": 1050.0, "major": false, "label": null}}, {"type": "Feature", "geometry": {"type": "LineString", "coordinates": [[-93.9388929, 29.862245], [-93.9382695, 29.8618017]]}, "properties": {"dockno": 1100.0, "major": true, "label": "1100"}}, {"type": "Feature", "geometry": {"type": "LineString", "coordinates": [[-93.9384792, 29.8617734], [-93.9383691, 29.8616952]]}, "properties": {"dockno": 1150.0, "major": false, "label": null}}, {"type": "Feature", "geometry": {"type": "LineString", "coordinates": [[-93.9390923, 29.8620319], [-93.9384688, 29.8615887]]}, "properties": {"dockno": 1200.0, "major": true, "label": "1200"}}, {"type": "Feature", "geometry": {"type": "LineString", "coordinates": [[-93.9386786, 29.8615603], [-93.9385685, 29.8614821]]}, "properties": {"dockno": 1250.0, "major": false, "label": null}}, {"type": "Feature", "geometry": {"type": "LineString", "coordinates": [[-93.9392917, 29.8618188], [-93.9386682, 29.8613756]]}, "properties": {"dockno": 1300.0, "major": true, "label": "1300"}}, {"type": "Feature", "geometry": {"type": "LineString", "coordinates": [[-93.9388779, 29.8613473], [-93.9387679, 29.8612691]]}, "properties": {"dockno": 1350.0, "major": false, "label": null}}, {"type": "Feature", "geometry": {"type": "LineString", "coordinates": [[-93.9394911, 29.8616057], [-93.9388676, 29.8611625]]}, "properties": {"dockno": 1400.0, "major": true, "label": "1400"}}, {"type": "Feature", "geometry": {"type": "LineString", "coordinates": [[-93.9390773, 29.8611342], [-93.9389673, 29.861056]]}, "properties": {"dockno": 1450.0, "major": false, "label": null}}, {"type": "Feature", "geometry": {"type": "LineString", "coordinates": [[-93.9396904, 29.8613927], [-93.939067, 29.8609494]]}, "properties": {"dockno": 1500.0, "major": true, "label": "1500"}}, {"type": "Feature", "geometry": {"type": "LineString", "coordinates": [[-93.9392767, 29.8609211], [-93.9391667, 29.8608429]]}, "properties": {"dockno": 1550.0, "major": false, "label": null}}, {"type": "Feature", "geometry": {"type": "LineString", "coordinates": [[-93.9398898, 29.8611796], [-93.9392664, 29.8607364]]}, "properties": {"dockno": 1600.0, "major": true, "label": "1600"}}, {"type": "Feature", "geometry": {"type": "LineString", "coordinates": [[-93.9394761, 29.860708], [-93.9393661, 29.8606298]]}, "properties": {"dockno": 1650.0, "major": false, "label": null}}, {"type": "Feature", "geometry": {"type": "LineString", "coordinates": [[-93.9400892, 29.8609665], [-93.9394658, 29.8605233]]}, "properties": {"dockno": 1700.0, "major": true, "label": "1700"}}, {"type": "Feature", "geometry": {"type": "LineString", "coordinates": [[-93.9396755, 29.860495], [-93.9395655, 29.8604168]]}, "properties": {"dockno": 1750.0, "major": false, "label": null}}, {"type": "Feature", "geometry": {"type": "LineString", "coordinates": [[-93.9402886, 29.8607534], [-93.9396651, 29.8603102]]}, "properties": {"dockno": 1800.0, "major": true, "label": "1800"}}, {"type": "Feature", "geometry": {"type": "LineString", "coordinates": [[-93.9398749, 29.8602819], [-93.9397648, 29.8602037]]}, "properties": {"dockno": 1850.0, "major": false, "label": null}}, {"type": "Feature", "geometry": {"type": "LineString", "coordinates": [[-93.940488, 29.8605404], [-93.9398645, 29.8600971]]}, "properties": {"dockno": 1900.0, "major": true, "label": "1900"}}, {"type": "Feature", "geometry": {"type": "LineString", "coordinates": [[-93.9400742, 29.8600688], [-93.9399642, 29.8599906]]}, "properties": {"dockno": 1950.0, "major": false, "label": null}}, {"type": "Feature", "geometry": {"type": "LineString", "coordinates": [[-93.9406873, 29.8603273], [-93.9400639, 29.8598841]]}, "properties": {"dockno": 2000.0, "major": true, "label": "2000"}}, {"type": "Feature", "geometry": {"type": "LineString", "coordinates": [[-93.9402736, 29.8598557], [-93.9401636, 29.8597775]]}, "properties": {"dockno": 2050.0, "major": false, "label": null}}, {"type": "Feature", "geometry": {"type": "LineString", "coordinates": [[-93.9408867, 29.8601142], [-93.9402633, 29.859671]]}, "properties": {"dockno": 2100.0, "major": true, "label": "2100"}}, {"type": "Feature", "geometry": {"type": "LineString", "coordinates": [[-93.940473, 29.8596427], [-93.940363, 29.8595645]]}, "properties": {"dockno": 2150.0, "major": false, "label": null}}, {"type": "Feature", "geometry": {"type": "LineString", "coordinates": [[-93.9410861, 29.8599011], [-93.9404627, 29.8594579]]}, "properties": {"dockno": 2200.0, "major": true, "label": "2200"}}, {"type": "Feature", "geometry": {"type": "LineString", "coordinates": [[-93.9406724, 29.8594296], [-93.9405623, 29.8593514]]}, "properties": {"dockno": 2250.0, "major": false, "label": null}}, {"type": "Feature", "geometry": {"type": "LineString", "coordinates": [[-93.9412855, 29.859688], [-93.940662, 29.8592448]]}, "properties": {"dockno": 2300.0, "major": true, "label": "2300"}}, {"type": "Feature", "geometry": {"type": "LineString", "coordinates": [[-93.9408717, 29.8592165], [-93.9407617, 29.8591383]]}, "properties": {"dockno": 2350.0, "major": false, "label": null}}, {"type": "Feature", "geometry": {"type": "LineString", "coordinates": [[-93.9414849, 29.859475], [-93.9408614, 29.8590318]]}, "properties": {"dockno": 2400.0, "major": true, "label": "2400"}}, {"type": "Feature", "geometry": {"type": "LineString", "coordinates": [[-93.9410711, 29.8590034], [-93.9409611, 29.8589252]]}, "properties": {"dockno": 2450.0, "major": false, "label": null}}, {"type": "Feature", "geometry": {"type": "LineString", "coordinates": [[-93.9416842, 29.8592619], [-93.9410608, 29.8588187]]}, "properties": {"dockno": 2500.0, "major": true, "label": "2500"}}, {"type": "Feature", "geometry": {"type": "LineString", "coordinates": [[-93.9412705, 29.8587903], [-93.9411605, 29.8587121]]}, "properties": {"dockno": 2550.0, "major": false, "label": null}}, {"type": "Feature", "geometry": {"type": "LineString", "coordinates": [[-93.9418836, 29.8590488], [-93.9412602, 29.8586056]]}, "properties": {"dockno": 2600.0, "major": true, "label": "2600"}}, {"type": "Feature", "geometry": {"type": "LineString", "coordinates": [[-93.9414699, 29.8585772], [-93.9413599, 29.858499]]}, "properties": {"dockno": 2650.0, "major": false, "label": null}}, {"type": "Feature", "geometry": {"type": "LineString", "coordinates": [[-93.942083, 29.8588357], [-93.9414596, 29.8583925]]}, "properties": {"dockno": 2700.0, "major": true, "label": "2700"}}, {"type": "Feature", "geometry": {"type": "LineString", "coordinates": [[-93.9416693, 29.8583642], [-93.9415593, 29.8582859]]}, "properties": {"dockno": 2750.0, "major": false, "label": null}}, {"type": "Feature", "geometry": {"type": "LineString", "coordinates": [[-93.9422824, 29.8586226], [-93.941659, 29.8581794]]}, "properties": {"dockno": 2800.0, "major": true, "label": "2800"}}, {"type": "Feature", "geometry": {"type": "LineString", "coordinates": [[-93.9418687, 29.8581511], [-93.9417586, 29.8580729]]}, "properties": {"dockno": 2850.0, "major": false, "label": null}}, {"type": "Feature", "geometry": {"type": "LineString", "coordinates": [[-93.9424818, 29.8584095], [-93.9418583, 29.8579663]]}, "properties": {"dockno": 2900.0, "major": true, "label": "2900"}}, {"type": "Feature", "geometry": {"type": "LineString", "coordinates": [[-93.942068, 29.857938], [-93.941958, 29.8578598]]}, "properties": {"dockno": 2950.0, "major": false, "label": null}}, {"type": "Feature", "geometry": {"type": "LineString", "coordinates": [[-93.9426811, 29.8581964], [-93.9420577, 29.8577532]]}, "properties": {"dockno": 3000.0, "major": true, "label": "3000"}}, {"type": "Feature", "geometry": {"type": "LineString", "coordinates": [[-93.9422674, 29.8577249], [-93.9421574, 29.8576467]]}, "properties": {"dockno": 3050.0, "major": false, "label": null}}, {"type": "Feature", "geometry": {"type": "LineString", "coordinates": [[-93.9428805, 29.8579834], [-93.9422571, 29.8575402]]}, "properties": {"dockno": 3100.0, "major": true, "label": "3100"}}, {"type": "Feature", "geometry": {"type": "LineString", "coordinates": [[-93.9424668, 29.8575118], [-93.9423568, 29.8574336]]}, "properties": {"dockno": 3150.0, "major": false, "label": null}}, {"type": "Feature", "geometry": {"type": "LineString", "coordinates": [[-93.9430799, 29.8577703], [-93.9424564, 29.8573271]]}, "properties": {"dockno": 3200.0, "major": true, "label": "3200"}}, {"type": "Feature", "geometry": {"type": "LineString", "coordinates": [[-93.9426661, 29.8572988], [-93.9425561, 29.8572206]]}, "properties": {"dockno": 3250.0, "major": false, "label": null}}, {"type": "Feature", "geometry": {"type": "LineString", "coordinates": [[-93.9432792, 29.8575572], [-93.9426558, 29.857114]]}, "properties": {"dockno": 3300.0, "major": true, "label": "3300"}}, {"type": "Feature", "geometry": {"type": "LineString", "coordinates": [[-93.9428655, 29.8570857], [-93.9427555, 29.8570075]]}, "properties": {"dockno": 3350.0, "major": false, "label": null}}, {"type": "Feature", "geometry": {"type": "LineString", "coordinates": [[-93.9434786, 29.8573442], [-93.9428551, 29.856901]]}, "properties": {"dockno": 3400.0, "major": true, "label": "3400"}}, {"type": "Feature", "geometry": {"type": "LineString", "coordinates": [[-93.9430648, 29.8568726], [-93.9429548, 29.8567944]]}, "properties": {"dockno": 3450.0, "major": false, "label": null}}, {"type": "Feature", "geometry": {"type": "LineString", "coordinates": [[-93.9436779, 29.8571311], [-93.9430545, 29.8566879]]}, "properties": {"dockno": 3500.0, "major": true, "label": "3500"}}, {"type": "Feature", "geometry": {"type": "LineString", "coordinates": [[-93.9432642, 29.8566596], [-93.9431542, 29.8565814]]}, "properties": {"dockno": 3550.0, "major": false, "label": null}}, {"type": "Feature", "geometry": {"type": "LineString", "coordinates": [[-93.9438773, 29.856918], [-93.9432539, 29.8564748]]}, "properties": {"dockno": 3600.0, "major": true, "label": "3600"}}, {"type": "Feature", "geometry": {"type": "LineString", "coordinates": [[-93.9434635, 29.8564465], [-93.9433535, 29.8563683]]}, "properties": {"dockno": 3650.0, "major": false, "label": null}}, {"type": "Feature", "geometry": {"type": "LineString", "coordinates": [[-93.9440766, 29.8567049], [-93.9434532, 29.8562618]]}, "properties": {"dockno": 3700.0, "major": true, "label": "3700"}}, {"type": "Feature", "geometry": {"type": "LineString", "coordinates": [[-93.9436629, 29.8562334], [-93.9435529, 29.8561552]]}, "properties": {"dockno": 3750.0, "major": false, "label": null}}, {"type": "Feature", "geometry": {"type": "LineString", "coordinates": [[-93.9442757, 29.8564922], [-93.9436523, 29.856049]]}, "properties": {"dockno": 3800.0, "major": true, "label": "3800"}}, {"type": "Feature", "geometry": {"type": "LineString", "coordinates": [[-93.9438613, 29.8560214], [-93.9437513, 29.8559432]]}, "properties": {"dockno": 3850.0, "major": false, "label": null}}, {"type": "Feature", "geometry": {"type": "LineString", "coordinates": [[-93.9444738, 29.8562805], [-93.9438503, 29.8558373]]}, "properties": {"dockno": 3900.0, "major": true, "label": "3900"}}, {"type": "Feature", "geometry": {"type": "LineString", "coordinates": [[-93.9440594, 29.8558097], [-93.9439494, 29.8557314]]}, "properties": {"dockno": 3950.0, "major": false, "label": null}}, {"type": "Feature", "geometry": {"type": "LineString", "coordinates": [[-93.9446718, 29.8560688], [-93.9440484, 29.8556256]]}, "properties": {"dockno": 4000.0, "major": true, "label": "4000"}}, {"type": "Feature", "geometry": {"type": "LineString", "coordinates": [[-93.9442575, 29.8555979], [-93.9441475, 29.8555197]]}, "properties": {"dockno": 4050.0, "major": false, "label": null}}, {"type": "Feature", "geometry": {"type": "LineString", "coordinates": [[-93.9448699, 29.8558571], [-93.9442465, 29.8554139]]}, "properties": {"dockno": 4100.0, "major": true, "label": "4100"}}, {"type": "Feature", "geometry": {"type": "LineString", "coordinates": [[-93.9444556, 29.8553862], [-93.9443455, 29.855308]]}, "properties": {"dockno": 4150.0, "major": false, "label": null}}, {"type": "Feature", "geometry": {"type": "LineString", "coordinates": [[-93.945068, 29.8556454], [-93.9444446, 29.8552022]]}, "properties": {"dockno": 4200.0, "major": true, "label": "4200"}}, {"type": "Feature", "geometry": {"type": "LineString", "coordinates": [[-93.9446536, 29.8551745], [-93.9445436, 29.8550963]]}, "properties": {"dockno": 4250.0, "major": false, "label": null}}, {"type": "Feature", "geometry": {"type": "LineString", "coordinates": [[-93.9452661, 29.8554336], [-93.9446427, 29.8549905]]}, "properties": {"dockno": 4300.0, "major": true, "label": "4300"}}, {"type": "Feature", "geometry": {"type": "LineString", "coordinates": [[-93.9448517, 29.8549628], [-93.9447417, 29.8548846]]}, "properties": {"dockno": 4350.0, "major": false, "label": null}}, {"type": "Feature", "geometry": {"type": "LineString", "coordinates": [[-93.9454642, 29.8552219], [-93.9448407, 29.8547787]]}, "properties": {"dockno": 4400.0, "major": true, "label": "4400"}}, {"type": "Feature", "geometry": {"type": "LineString", "coordinates": [[-93.9450498, 29.8547511], [-93.9449398, 29.8546729]]}, "properties": {"dockno": 4450.0, "major": false, "label": null}}, {"type": "Feature", "geometry": {"type": "LineString", "coordinates": [[-93.9457236, 29.8549446], [-93.9451001, 29.8545015]]}, "properties": {"dockno": 4531.0, "major": true, "label": "4531"}}]}